IONOSFERA-M 4           
1 64877U 25155B   26198.19577478  .00000013  00000+0  25587-4 0  9998
2 64877  98.6040 159.2654 0001853  97.6355 262.5033 14.21493432 50666
MICROCARB               
1 64899U 25156A   26197.77329745  .00000254  00000+0  47438-4 0  9994
2 64899  98.0074 274.4532 0017746 165.7348 194.4365 14.72886118 52322
CO3D 3                  
1 64900U 25156B   26198.20283003  .00002064  00000+0  98456-4 0  9999
2 64900  97.4333 276.4645 0001751  93.8331 266.3104 15.20200884 54095
CO3D 4                  
1 64901U 25156C   26198.20298227  .00000645  00000+0  32902-4 0  9991
2 64901  97.4336 276.4646 0001797 151.1750 208.9585 15.20199991 54094
CO3D 2                  
1 64902U 25156D   26198.16963307  .00003171  00000+0  14953-3 0  9997
2 64902  97.4335 276.3305 0001233  90.6198 269.5178 15.20203067 54083
CO3D 1                  
1 64903U 25156E   26198.16978319  .00002228  00000+0  10597-3 0  9999
2 64903  97.4335 276.3307 0001337 101.9199 258.2186 15.20210381 54089
PRSC-S1                 
1 65055U 25164A   26198.16188493  .00002254  00000+0  16110-3 0  9999
2 65055  41.1301 118.9659 0007019 210.2924 149.7485 15.06644743 52958
SENTINEL-6B             
1 66514U 25264A   26198.06698990 -.00000041  00000+0  88133-4 0  9996
2 66514  66.0412  73.1188 0007841 268.5819  91.4298 12.80930176 30991
CAS500-3                
1 66655U 25274F   26197.79627863  .00000583  00000+0  68742-4 0  9997
2 66655  97.7435 125.1740 0006148  33.8491 326.3117 14.88386057 34552
CSG-3                   
1 67304U 26001A   26194.52815792  .00000135  00000+0  23485-4 0  9994
2 67304  97.8894  17.7492 0001518  93.3222 266.8165 14.82151371 28369
PRSC-E03                
1 68835U 26092A   26198.20942353  .00001100  00000+0  79676-4 0  9993
2 68835  38.0010 272.6265 0005017 263.4763  96.5427 15.06814219 12483
CAS500-2                
1 69013U 26100AK  26198.15691976  .00003662  00000+0  17440-3 0  9993
2 69013  97.3858  95.4404 0007918 245.3590 114.6821 15.19738032 11363
