OBJECT_NAME,OBJECT_ID,EPOCH,MEAN_MOTION,ECCENTRICITY,INCLINATION,RA_OF_ASC_NODE,ARG_OF_PERICENTER,MEAN_ANOMALY,EPHEMERIS_TYPE,CLASSIFICATION_TYPE,NORAD_CAT_ID,ELEMENT_SET_NO,REV_AT_EPOCH,BSTAR,MEAN_MOTION_DOT,MEAN_MOTION_DDOT
IONOSFERA-M 4,2025-155B,2026-07-17T04:41:54.940992,14.21493432,.0001853,98.6040,159.2654,97.6355,262.5033,0,U,64877,999,5066,.25587E-4,.13E-6,0
MICROCARB,2025-156A,2026-07-16T18:33:32.899680,14.72886118,.0017746,98.0074,274.4532,165.7348,194.4365,0,U,64899,999,5232,.47438E-4,.254E-5,0
CO3D 3,2025-156B,2026-07-17T04:52:04.514592,15.20200884,.0001751,97.4333,276.4645,93.8331,266.3104,0,U,64900,999,5409,.98456E-4,.2064E-4,0
CO3D 4,2025-156C,2026-07-17T04:52:17.668128,15.20199991,.0001797,97.4336,276.4646,151.1750,208.9585,0,U,64901,999,5409,.32902E-4,.645E-5,0
CO3D 2,2025-156D,2026-07-17T04:04:16.297248,15.20203067,.0001233,97.4335,276.3305,90.6198,269.5178,0,U,64902,999,5408,.14953E-3,.3171E-4,0
CO3D 1,2025-156E,2026-07-17T04:04:29.267616,15.20210381,.0001337,97.4335,276.3307,101.9199,258.2186,0,U,64903,999,5408,.10597E-3,.2228E-4,0
PRSC-S1,2025-164A,2026-07-17T03:53:06.857952,15.06644743,.0007019,41.1301,118.9659,210.2924,149.7485,0,U,65055,999,5295,.1611E-3,.2254E-4,0
SENTINEL-6B,2025-264A,2026-07-17T01:36:27.927360,12.80930176,.0007841,66.0412,73.1188,268.5819,91.4298,0,U,66514,999,3099,.88133E-4,-.41E-6,0
CAS500-3,2025-274F,2026-07-16T19:06:38.473632,14.88386057,.0006148,97.7435,125.1740,33.8491,326.3117,0,U,66655,999,3455,.68742E-4,.583E-5,0
CSG-3,2026-001A,2026-07-13T12:40:32.844288,14.82151371,.00015181,97.8894,17.7492,93.3222,266.8165,0,U,67304,999,2836,.2348529E-4,.135E-5,0
PRSC-E03,2026-092A,2026-07-17T05:01:34.192992,15.06814219,.0005017,38.0010,272.6265,263.4763,96.5427,0,U,68835,999,1248,.79676E-4,.11E-4,0
CAS500-2,2026-100AK,2026-07-17T03:45:57.867264,15.19738032,.0007918,97.3858,95.4404,245.3590,114.6821,0,U,69013,999,1136,.1744E-3,.3662E-4,0
